{"type": "FeatureCollection", "features": [{"type": "Feature", "properties": {"norad_id": 22490, "name": "SCD 1", "group": "resource", "lat": -24.84884392620837, "lon": 98.79065243424994, "alt_km": 766.6464294957723, "timestamp": "2025-12-26T09:30:53.284108+00:00", "meta": {"OBJECT_NAME": "SCD 1", "OBJECT_ID": "1993-009B", "EPOCH": "2025-12-25T16:00:22.325184", "MEAN_MOTION": 14.46007346, "ECCENTRICITY": 0.0042177, "INCLINATION": 24.9675, "RA_OF_ASC_NODE": 198.8837, "ARG_OF_PERICENTER": 101.5468, "MEAN_ANOMALY": 317.8225, "EPHEMERIS_TYPE": 0, "CLASSIFICATION_TYPE": "U", "NORAD_CAT_ID": 22490, "ELEMENT_SET_NO": 999, "REV_AT_EPOCH": 73597, "BSTAR": 8.5981e-05, "MEAN_MOTION_DOT": 5e-06, "MEAN_MOTION_DDOT": 0}, "tle": {"line1": "1 22490U 93009B   25359.66692506  .00000500  00000+0  85981-4 0  9991", "line2": "2 22490  24.9675 198.8837 0042177 101.5468 317.8225 14.46007346735976"}}, "geometry": {"type": "Point", "coordinates": [98.79065243424994, -24.84884392620837]}}, {"type": "Feature", "properties": {"norad_id": 25397, "name": "TECHSAT 1B (GO-32)", "group": "resource", "lat": -41.280177337621154, "lon": -8.083615616007524, "alt_km": 816.8068782606706, "timestamp": "2025-12-26T09:30:53.284151+00:00", "meta": {"OBJECT_NAME": "TECHSAT 1B (GO-32)", "OBJECT_ID": "1998-043D", "EPOCH": "2025-12-25T21:54:35.731584", "MEAN_MOTION": 14.24380587, "ECCENTRICITY": 0.0001626, "INCLINATION": 98.9934, "RA_OF_ASC_NODE": 343.4298, "ARG_OF_PERICENTER": 35.4202, "MEAN_ANOMALY": 324.7083, "EPHEMERIS_TYPE": 0, "CLASSIFICATION_TYPE": "U", "NORAD_CAT_ID": 25397, "ELEMENT_SET_NO": 999, "REV_AT_EPOCH": 42666, "BSTAR": 5.7042e-05, "MEAN_MOTION_DOT": 8.5e-07, "MEAN_MOTION_DDOT": 0}, "tle": {"line1": "1 25397U 98043D   25359.91291356  .00000085  00000+0  57042-4 0  9994", "line2": "2 25397  98.9934 343.4298 0001626  35.4202 324.7083 14.24380587426667"}}, "geometry": {"type": "Point", "coordinates": [-8.083615616007524, -41.280177337621154]}}, {"type": "Feature", "properties": {"norad_id": 25504, "name": "SCD 2", "group": "resource", "lat": -24.96891266739247, "lon": -34.23645614334896, "alt_km": 753.2320264625623, "timestamp": "2025-12-26T09:30:53.284168+00:00", "meta": {"OBJECT_NAME": "SCD 2", "OBJECT_ID": "1998-060A", "EPOCH": "2025-12-25T12:59:50.528256", "MEAN_MOTION": 14.45430101, "ECCENTRICITY": 0.0017068, "INCLINATION": 24.9956, "RA_OF_ASC_NODE": 62.9589, "ARG_OF_PERICENTER": 88.2247, "MEAN_ANOMALY": 42.4879, "EPHEMERIS_TYPE": 0, "CLASSIFICATION_TYPE": "U", "NORAD_CAT_ID": 25504, "ELEMENT_SET_NO": 999, "REV_AT_EPOCH": 43517, "BSTAR": 7.5618e-05, "MEAN_MOTION_DOT": 4.53e-06, "MEAN_MOTION_DDOT": 0}, "tle": {"line1": "1 25504U 98060A   25359.54155704  .00000453  00000+0  75618-4 0  9996", "line2": "2 25504  24.9956  62.9589 0017068  88.2247  42.4879 14.45430101435172"}}, "geometry": {"type": "Point", "coordinates": [-34.23645614334896, -24.96891266739247]}}, {"type": "Feature", "properties": {"norad_id": 25757, "name": "DLR-TUBSAT", "group": "resource", "lat": 68.39016557468753, "lon": -172.05015404726458, "alt_km": 703.6812071408058, "timestamp": "2025-12-26T09:30:53.284180+00:00", "meta": {"OBJECT_NAME": "DLR-TUBSAT", "OBJECT_ID": "1999-029B", "EPOCH": "2025-12-17T13:22:10.787520", "MEAN_MOTION": 14.52359578, "ECCENTRICITY": 0.00141996, "INCLINATION": 98.6566, "RA_OF_ASC_NODE": 336.2196, "ARG_OF_PERICENTER": 177.8976, "MEAN_ANOMALY": 182.2281, "EPHEMERIS_TYPE": 0, "CLASSIFICATION_TYPE": "U", "NORAD_CAT_ID": 25757, "ELEMENT_SET_NO": 999, "REV_AT_EPOCH": 40688, "BSTAR": 3.7650132e-05, "MEAN_MOTION_DOT": 1.05e-06, "MEAN_MOTION_DDOT": 0}, "tle": {"line1": "1 25757U 99029B   25351.55706930  .00000105  00000+0  37650-4 0  9996", "line2": "2 25757  98.6566 336.2196 0014199 177.8976 182.2281 14.52359578406886"}}, "geometry": {"type": "Point", "coordinates": [-172.05015404726458, 68.39016557468753]}}, {"type": "Feature", "properties": {"norad_id": 25994, "name": "TERRA", "group": "resource", "lat": -51.469706847143506, "lon": -138.55872150664567, "alt_km": 699.4791871094949, "timestamp": "2025-12-26T09:30:53.284193+00:00", "meta": {"OBJECT_NAME": "TERRA", "OBJECT_ID": "1999-068A", "EPOCH": "2025-12-26T03:48:06.533280", "MEAN_MOTION": 14.60916328, "ECCENTRICITY": 0.0003393, "INCLINATION": 97.973, "RA_OF_ASC_NODE": 51.3492, "ARG_OF_PERICENTER": 67.7097, "MEAN_ANOMALY": 353.1976, "EPHEMERIS_TYPE": 0, "CLASSIFICATION_TYPE": "U", "NORAD_CAT_ID": 25994, "ELEMENT_SET_NO": 999, "REV_AT_EPOCH": 38434, "BSTAR": 0.00010137, "MEAN_MOTION_DOT": 4.52e-06, "MEAN_MOTION_DDOT": 0}, "tle": {"line1": "1 25994U 99068A   25360.15840895  .00000452  00000+0  10137-3 0  9992", "line2": "2 25994  97.9730  51.3492 0003393  67.7097 353.1976 14.60916328384340"}}, "geometry": {"type": "Point", "coordinates": [-138.55872150664567, -51.469706847143506]}}, {"type": "Feature", "properties": {"norad_id": 27004, "name": "MAROC-TUBSAT", "group": "resource", "lat": 80.07699428327024, "lon": 69.86898037558676, "alt_km": 1000.7942209704152, "timestamp": "2025-12-26T09:30:53.284205+00:00", "meta": {"OBJECT_NAME": "MAROC-TUBSAT", "OBJECT_ID": "2001-056D", "EPOCH": "2025-12-25T23:08:45.257280", "MEAN_MOTION": 13.70253529, "ECCENTRICITY": 0.00192975, "INCLINATION": 99.7917, "RA_OF_ASC_NODE": 168.6412, "ARG_OF_PERICENTER": 225.0784, "MEAN_ANOMALY": 256.5669, "EPHEMERIS_TYPE": 0, "CLASSIFICATION_TYPE": "U", "NORAD_CAT_ID": 27004, "ELEMENT_SET_NO": 999, "REV_AT_EPOCH": 20246, "BSTAR": 2.8065745e-05, "MEAN_MOTION_DOT": -2.2e-07, "MEAN_MOTION_DDOT": 0}, "tle": {"line1": "1 27004U 01056D   25359.96441270 -.00000022  00000+0  28066-4 0  9992", "line2": "2 27004  99.7917 168.6412 0019297 225.0784 256.5669 13.70253529202461"}}, "geometry": {"type": "Point", "coordinates": [69.86898037558676, 80.07699428327024]}}, {"type": "Feature", "properties": {"norad_id": 27424, "name": "AQUA", "group": "resource", "lat": 27.729695469002458, "lon": 145.95682260999766, "alt_km": 685.581331207557, "timestamp": "2025-12-26T09:30:53.284217+00:00", "meta": {"OBJECT_NAME": "AQUA", "OBJECT_ID": "2002-022A", "EPOCH": "2025-12-24T19:18:33.414624", "MEAN_MOTION": 14.61757572, "ECCENTRICITY": 0.00018094, "INCLINATION": 98.4055, "RA_OF_ASC_NODE": 319.881, "ARG_OF_PERICENTER": 102.1365, "MEAN_ANOMALY": 317.5475, "EPHEMERIS_TYPE": 0, "CLASSIFICATION_TYPE": "U", "NORAD_CAT_ID": 27424, "ELEMENT_SET_NO": 999, "REV_AT_EPOCH": 25779, "BSTAR": 0.00019560508, "MEAN_MOTION_DOT": 9.26e-06, "MEAN_MOTION_DDOT": 0}, "tle": {"line1": "1 27424U 02022A   25358.80455341  .00000926  00000+0  19561-3 0  9999", "line2": "2 27424  98.4055 319.8810 0001809 102.1365 317.5475 14.61757572257795"}}, "geometry": {"type": "Point", "coordinates": [145.95682260999766, 27.729695469002458]}}, {"type": "Feature", "properties": {"norad_id": 28051, "name": "IRS-P6 (RESOURCESAT-1)", "group": "resource", "lat": -13.295909021153372, "lon": -141.7874600472228, "alt_km": 748.0903638398395, "timestamp": "2025-12-26T09:30:53.284253+00:00", "meta": {"OBJECT_NAME": "IRS-P6 (RESOURCESAT-1)", "OBJECT_ID": "2003-046A", "EPOCH": "2025-12-26T04:01:45.099840", "MEAN_MOTION": 14.36080525, "ECCENTRICITY": 0.0064959, "INCLINATION": 98.2158, "RA_OF_ASC_NODE": 39.9512, "ARG_OF_PERICENTER": 140.6147, "MEAN_ANOMALY": 311.1271, "EPHEMERIS_TYPE": 0, "CLASSIFICATION_TYPE": "U", "NORAD_CAT_ID": 28051, "ELEMENT_SET_NO": 999, "REV_AT_EPOCH": 15569, "BSTAR": 6.4824e-05, "MEAN_MOTION_DOT": 1.53e-06, "MEAN_MOTION_DDOT": 0}, "tle": {"line1": "1 28051U 03046A   25360.16788310  .00000153  00000+0  64824-4 0  9995", "line2": "2 28051  98.2158  39.9512 0064959 140.6147 311.1271 14.36080525155692"}}, "geometry": {"type": "Point", "coordinates": [-141.7874600472228, -13.295909021153372]}}, {"type": "Feature", "properties": {"norad_id": 28220, "name": "SHIYAN-1 (SY-1)", "group": "resource", "lat": -80.9830693289976, "lon": 123.67730700416371, "alt_km": 484.15372149925133, "timestamp": "2025-12-26T09:30:53.284267+00:00", "meta": {"OBJECT_NAME": "SHIYAN-1 (SY-1)", "OBJECT_ID": "2004-012A", "EPOCH": "2025-12-25T18:10:37.216416", "MEAN_MOTION": 15.2847773, "ECCENTRICITY": 0.00051453, "INCLINATION": 97.8913, "RA_OF_ASC_NODE": 62.0651, "ARG_OF_PERICENTER": 270.3506, "MEAN_ANOMALY": 89.7142, "EPHEMERIS_TYPE": 0, "CLASSIFICATION_TYPE": "U", "NORAD_CAT_ID": 28220, "ELEMENT_SET_NO": 999, "REV_AT_EPOCH": 18455, "BSTAR": 0.00048278307, "MEAN_MOTION_DOT": 0.00013314, "MEAN_MOTION_DDOT": 0}, "tle": {"line1": "1 28220U 04012A   25359.75737519  .00013314  00000+0  48278-3 0  9992", "line2": "2 28220  97.8913  62.0651 0005145 270.3506  89.7142 15.28477730184559"}}, "geometry": {"type": "Point", "coordinates": [123.67730700416371, -80.9830693289976]}}, {"type": "Feature", "properties": {"norad_id": 28376, "name": "AURA", "group": "resource", "lat": -60.4175874447271, "lon": 115.74858061161287, "alt_km": 698.0601111616743, "timestamp": "2025-12-26T09:30:53.284278+00:00", "meta": {"OBJECT_NAME": "AURA", "OBJECT_ID": "2004-026A", "EPOCH": "2025-12-26T03:28:54.881760", "MEAN_MOTION": 14.6097635, "ECCENTRICITY": 0.0001445, "INCLINATION": 98.3204, "RA_OF_ASC_NODE": 310.4354, "ARG_OF_PERICENTER": 90.5232, "MEAN_ANOMALY": 269.6134, "EPHEMERIS_TYPE": 0, "CLASSIFICATION_TYPE": "U", "NORAD_CAT_ID": 28376, "ELEMENT_SET_NO": 999, "REV_AT_EPOCH": 14094, "BSTAR": 0.0002242, "MEAN_MOTION_DOT": 1.051e-05, "MEAN_MOTION_DDOT": 0}, "tle": {"line1": "1 28376U 04026A   25360.14507965  .00001051  00000+0  22420-3 0  9990", "line2": "2 28376  98.3204 310.4354 0001445  90.5232 269.6134 14.60976350140949"}}, "geometry": {"type": "Point", "coordinates": [115.74858061161287, -60.4175874447271]}}]}